[{"OBJECT_NAME":"STARLINK-1356","OBJECT_ID":"2020-025AK","EPOCH":"2026-03-09T09:47:10.727520","MEAN_MOTION":15.44776817,"ECCENTRICITY":0.0005933,"INCLINATION":53.0527,"RA_OF_ASC_NODE":75.1976,"ARG_OF_PERICENTER":32.1669,"MEAN_ANOMALY":327.9698,"EPHEMERIS_TYPE":0,"CLASSIFICATION_TYPE":"U","NORAD_CAT_ID":45564,"ELEMENT_SET_NO":999,"REV_AT_EPOCH":32550,"BSTAR":0.0018744498,"MEAN_MOTION_DOT":0.00089774,"MEAN_MOTION_DDOT":0},{"OBJECT_NAME":"SIT-2086","OBJECT_ID":"2024-199AF","EPOCH":"2026-03-09T21:58:57.858816","MEAN_MOTION":15.47661375,"ECCENTRICITY":0.00059701,"INCLINATION":97.3118,"RA_OF_ASC_NODE":303.9174,"ARG_OF_PERICENTER":271.0533,"MEAN_ANOMALY":89.0033,"EPHEMERIS_TYPE":0,"CLASSIFICATION_TYPE":"U","NORAD_CAT_ID":61764,"ELEMENT_SET_NO":999,"REV_AT_EPOCH":11905,"BSTAR":0.00051547248,"MEAN_MOTION_DOT":0.00026602,"MEAN_MOTION_DDOT":0}]
